[
  {
    "OBJECT_NAME": "STARLINK-32253",
    "OBJECT_ID": "24152P",
    "EPOCH": "2025-11-10T19:52:52.235904",
    "MEAN_MOTION": 15.30173925,
    "ECCENTRICITY": 0.0001039,
    "INCLINATION": 53.1583,
    "RA_OF_ASC_NODE": 100.4455,
    "ARG_OF_PERICENTER": 60.4025,
    "MEAN_ANOMALY": 299.708,
    "EPHEMERIS_TYPE": 0,
    "CLASSIFICATION_TYPE": "U",
    "NORAD_CAT_ID": 60733,
    "ELEMENT_SET_NO": 999,
    "REV_AT_EPOCH": 6860,
    "BSTAR": 0.0,
    "MEAN_MOTION_DOT": -1.951e-05,
    "MEAN_MOTION_DDOT": 0.0,
    "TLE_LINE1": "1 60733U 24152P   25314.82838236 -.00001951  00000+0 -53801-4 0  9996",
    "TLE_LINE2": "2 60733  53.1583 100.4455 0001039  60.4025 299.7080 15.30173925 68606",
    "COMMENT": "Grouped by shell and plane from TLE"
  },
  {
    "OBJECT_NAME": "STARLINK-32179",
    "OBJECT_ID": "24152Q",
    "EPOCH": "2025-11-10T11:29:19.727520",
    "MEAN_MOTION": 15.30191376,
    "ECCENTRICITY": 0.0001491,
    "INCLINATION": 53.1604,
    "RA_OF_ASC_NODE": 102.54,
    "ARG_OF_PERICENTER": 82.6372,
    "MEAN_ANOMALY": 277.4798,
    "EPHEMERIS_TYPE": 0,
    "CLASSIFICATION_TYPE": "U",
    "NORAD_CAT_ID": 60734,
    "ELEMENT_SET_NO": 999,
    "REV_AT_EPOCH": 6846,
    "BSTAR": 3.3016000000000004e-05,
    "MEAN_MOTION_DOT": 6.18e-06,
    "MEAN_MOTION_DDOT": 0.0,
    "TLE_LINE1": "1 60734U 24152Q   25314.47870055  .00000618  00000+0  33016-4 0  9996",
    "TLE_LINE2": "2 60734  53.1604 102.5400 0001491  82.6372 277.4798 15.30191376 68460",
    "COMMENT": "Grouped by shell and plane from TLE"
  },
  {
    "OBJECT_NAME": "STARLINK-32272",
    "OBJECT_ID": "24152R",
    "EPOCH": "2025-11-10T10:04:39.571680",
    "MEAN_MOTION": 15.30690528,
    "ECCENTRICITY": 0.0001275,
    "INCLINATION": 53.1593,
    "RA_OF_ASC_NODE": 102.1823,
    "ARG_OF_PERICENTER": 70.2371,
    "MEAN_ANOMALY": 289.8768,
    "EPHEMERIS_TYPE": 0,
    "CLASSIFICATION_TYPE": "U",
    "NORAD_CAT_ID": 60735,
    "ELEMENT_SET_NO": 999,
    "REV_AT_EPOCH": 6855,
    "BSTAR": 0.0008355200000000001,
    "MEAN_MOTION_DOT": 0.00024848,
    "MEAN_MOTION_DDOT": 0.0,
    "TLE_LINE1": "1 60735U 24152R   25314.41990245  .00024848  00000+0  83552-3 0  9995",
    "TLE_LINE2": "2 60735  53.1593 102.1823 0001275  70.2371 289.8768 15.30690528 68552",
    "COMMENT": "Grouped by shell and plane from TLE"
  },
  {
    "OBJECT_NAME": "STARLINK-32235",
    "OBJECT_ID": "24152V",
    "EPOCH": "2025-11-10T20:26:17.956608",
    "MEAN_MOTION": 15.30192673,
    "ECCENTRICITY": 0.0001899,
    "INCLINATION": 53.1588,
    "RA_OF_ASC_NODE": 100.6008,
    "ARG_OF_PERICENTER": 120.1604,
    "MEAN_ANOMALY": 239.9585,
    "EPHEMERIS_TYPE": 0,
    "CLASSIFICATION_TYPE": "U",
    "NORAD_CAT_ID": 60739,
    "ELEMENT_SET_NO": 999,
    "REV_AT_EPOCH": 6860,
    "BSTAR": 0.00013988,
    "MEAN_MOTION_DOT": 3.785e-05,
    "MEAN_MOTION_DDOT": 0.0,
    "TLE_LINE1": "1 60739U 24152V   25314.85159672  .00003785  00000+0  13988-3 0  9991",
    "TLE_LINE2": "2 60739  53.1588 100.6008 0001899 120.1604 239.9585 15.30192673 68601",
    "COMMENT": "Grouped by shell and plane from TLE"
  },
  {
    "OBJECT_NAME": "STARLINK-32315",
    "OBJECT_ID": "24152W",
    "EPOCH": "2025-11-10T20:21:43.652160",
    "MEAN_MOTION": 15.30197544,
    "ECCENTRICITY": 0.0001195,
    "INCLINATION": 53.1602,
    "RA_OF_ASC_NODE": 100.5828,
    "ARG_OF_PERICENTER": 100.9571,
    "MEAN_ANOMALY": 259.1565,
    "EPHEMERIS_TYPE": 0,
    "CLASSIFICATION_TYPE": "U",
    "NORAD_CAT_ID": 60740,
    "ELEMENT_SET_NO": 999,
    "REV_AT_EPOCH": 6852,
    "BSTAR": 3.4015000000000006e-05,
    "MEAN_MOTION_DOT": 6.48e-06,
    "MEAN_MOTION_DDOT": 0.0,
    "TLE_LINE1": "1 60740U 24152W   25314.84842190  .00000648  00000+0  34015-4 0  9996",
    "TLE_LINE2": "2 60740  53.1602 100.5828 0001195 100.9571 259.1565 15.30197544 68522",
    "COMMENT": "Grouped by shell and plane from TLE"
  },
  {
    "OBJECT_NAME": "STARLINK-32302",
    "OBJECT_ID": "24191A",
    "EPOCH": "2025-11-11T02:33:00.097632",
    "MEAN_MOTION": 15.27581608,
    "ECCENTRICITY": 0.0001204,
    "INCLINATION": 42.9988,
    "RA_OF_ASC_NODE": 103.9386,
    "ARG_OF_PERICENTER": 279.0567,
    "MEAN_ANOMALY": 81.0148,
    "EPHEMERIS_TYPE": 0,
    "CLASSIFICATION_TYPE": "U",
    "NORAD_CAT_ID": 61621,
    "ELEMENT_SET_NO": 999,
    "REV_AT_EPOCH": 6015,
    "BSTAR": 4.2372e-06,
    "MEAN_MOTION_DOT": -1.45e-06,
    "MEAN_MOTION_DDOT": 0.0,
    "TLE_LINE1": "1 61621U 24191A   25315.10625113 -.00000145  00000+0  42372-5 0  9991",
    "TLE_LINE2": "2 61621  42.9988 103.9386 0001204 279.0567  81.0148 15.27581608 60158",
    "COMMENT": "Grouped by shell and plane from TLE"
  },
  {
    "OBJECT_NAME": "STARLINK-32364",
    "OBJECT_ID": "24191B",
    "EPOCH": "2025-11-11T02:47:48.979968",
    "MEAN_MOTION": 15.27580476,
    "ECCENTRICITY": 0.000129,
    "INCLINATION": 43.0049,
    "RA_OF_ASC_NODE": 104.0176,
    "ARG_OF_PERICENTER": 263.9698,
    "MEAN_ANOMALY": 96.1007,
    "EPHEMERIS_TYPE": 0,
    "CLASSIFICATION_TYPE": "U",
    "NORAD_CAT_ID": 61622,
    "ELEMENT_SET_NO": 999,
    "REV_AT_EPOCH": 5940,
    "BSTAR": 3.8855e-05,
    "MEAN_MOTION_DOT": 8.07e-06,
    "MEAN_MOTION_DDOT": 0.0,
    "TLE_LINE1": "1 61622U 24191B   25315.11653912  .00000807  00000+0  38855-4 0  9995",
    "TLE_LINE2": "2 61622  43.0049 104.0176 0001290 263.9698  96.1007 15.27580476 59409",
    "COMMENT": "Grouped by shell and plane from TLE"
  },
  {
    "OBJECT_NAME": "STARLINK-32331",
    "OBJECT_ID": "24191C",
    "EPOCH": "2025-11-11T03:05:36.344832",
    "MEAN_MOTION": 15.27579573,
    "ECCENTRICITY": 0.0001393,
    "INCLINATION": 43.0001,
    "RA_OF_ASC_NODE": 107.5793,
    "ARG_OF_PERICENTER": 275.2463,
    "MEAN_ANOMALY": 84.823,
    "EPHEMERIS_TYPE": 0,
    "CLASSIFICATION_TYPE": "U",
    "NORAD_CAT_ID": 61623,
    "ELEMENT_SET_NO": 999,
    "REV_AT_EPOCH": 5936,
    "BSTAR": 6.1358e-05,
    "MEAN_MOTION_DOT": 1.427e-05,
    "MEAN_MOTION_DDOT": 0.0,
    "TLE_LINE1": "1 61623U 24191C   25315.12889288  .00001427  00000+0  61358-4 0  9997",
    "TLE_LINE2": "2 61623  43.0001 107.5793 0001393 275.2463  84.8230 15.27579573 59364",
    "COMMENT": "Grouped by shell and plane from TLE"
  },
  {
    "OBJECT_NAME": "STARLINK-32398",
    "OBJECT_ID": "24191D",
    "EPOCH": "2025-11-11T03:04:27.090912",
    "MEAN_MOTION": 15.2758369,
    "ECCENTRICITY": 0.0001024,
    "INCLINATION": 43.0019,
    "RA_OF_ASC_NODE": 104.1036,
    "ARG_OF_PERICENTER": 268.2498,
    "MEAN_ANOMALY": 91.8237,
    "EPHEMERIS_TYPE": 0,
    "CLASSIFICATION_TYPE": "U",
    "NORAD_CAT_ID": 61624,
    "ELEMENT_SET_NO": 999,
    "REV_AT_EPOCH": 5940,
    "BSTAR": 5.000900000000001e-05,
    "MEAN_MOTION_DOT": 1.115e-05,
    "MEAN_MOTION_DDOT": 0.0,
    "TLE_LINE1": "1 61624U 24191D   25315.12809133  .00001115  00000+0  50009-4 0  9994",
    "TLE_LINE2": "2 61624  43.0019 104.1036 0001024 268.2498  91.8237 15.27583690 59403",
    "COMMENT": "Grouped by shell and plane from TLE"
  },
  {
    "OBJECT_NAME": "STARLINK-32365",
    "OBJECT_ID": "24191E",
    "EPOCH": "2025-11-11T02:36:41.691168",
    "MEAN_MOTION": 15.27591367,
    "ECCENTRICITY": 0.0001337,
    "INCLINATION": 42.9994,
    "RA_OF_ASC_NODE": 103.9577,
    "ARG_OF_PERICENTER": 273.1026,
    "MEAN_ANOMALY": 86.9673,
    "EPHEMERIS_TYPE": 0,
    "CLASSIFICATION_TYPE": "U",
    "NORAD_CAT_ID": 61625,
    "ELEMENT_SET_NO": 999,
    "REV_AT_EPOCH": 5940,
    "BSTAR": 0.00021458,
    "MEAN_MOTION_DOT": 5.649e-05,
    "MEAN_MOTION_DDOT": 0.0,
    "TLE_LINE1": "1 61625U 24191E   25315.10881587  .00005649  00000+0  21458-3 0  9997",
    "TLE_LINE2": "2 61625  42.9994 103.9577 0001337 273.1026  86.9673 15.27591367 59409",
    "COMMENT": "Grouped by shell and plane from TLE"
  },
  {
    "OBJECT_NAME": "STARLINK-32333",
    "OBJECT_ID": "24191F",
    "EPOCH": "2025-11-11T03:22:15.564288",
    "MEAN_MOTION": 15.27582218,
    "ECCENTRICITY": 0.0001128,
    "INCLINATION": 43.0007,
    "RA_OF_ASC_NODE": 107.6663,
    "ARG_OF_PERICENTER": 286.1039,
    "MEAN_ANOMALY": 73.9689,
    "EPHEMERIS_TYPE": 0,
    "CLASSIFICATION_TYPE": "U",
    "NORAD_CAT_ID": 61626,
    "ELEMENT_SET_NO": 999,
    "REV_AT_EPOCH": 5936,
    "BSTAR": 4.638e-05,
    "MEAN_MOTION_DOT": 1.015e-05,
    "MEAN_MOTION_DDOT": 0.0,
    "TLE_LINE1": "1 61626U 24191F   25315.14045792  .00001015  00000+0  46380-4 0  9997",
    "TLE_LINE2": "2 61626  43.0007 107.6663 0001128 286.1039  73.9689 15.27582218 59363",
    "COMMENT": "Grouped by shell and plane from TLE"
  },
  {
    "OBJECT_NAME": "STARLINK-32421",
    "OBJECT_ID": "24191H",
    "EPOCH": "2025-11-10T19:22:55.858944",
    "MEAN_MOTION": 15.27580443,
    "ECCENTRICITY": 0.0001363,
    "INCLINATION": 43.0031,
    "RA_OF_ASC_NODE": 106.0007,
    "ARG_OF_PERICENTER": 268.1947,
    "MEAN_ANOMALY": 91.8749,
    "EPHEMERIS_TYPE": 0,
    "CLASSIFICATION_TYPE": "U",
    "NORAD_CAT_ID": 61628,
    "ELEMENT_SET_NO": 999,
    "REV_AT_EPOCH": 5935,
    "BSTAR": 4.5943000000000004e-05,
    "MEAN_MOTION_DOT": 1.002e-05,
    "MEAN_MOTION_DDOT": 0.0,
    "TLE_LINE1": "1 61628U 24191H   25314.80759096  .00001002  00000+0  45943-4 0  9990",
    "TLE_LINE2": "2 61628  43.0031 106.0007 0001363 268.1947  91.8749 15.27580443 59359",
    "COMMENT": "Grouped by shell and plane from TLE"
  },
  {
    "OBJECT_NAME": "STARLINK-32403",
    "OBJECT_ID": "24191J",
    "EPOCH": "2025-11-10T17:33:57.687552",
    "MEAN_MOTION": 15.27587994,
    "ECCENTRICITY": 0.0001539,
    "INCLINATION": 43.0038,
    "RA_OF_ASC_NODE": 106.29,
    "ARG_OF_PERICENTER": 279.7341,
    "MEAN_ANOMALY": 80.3337,
    "EPHEMERIS_TYPE": 0,
    "CLASSIFICATION_TYPE": "U",
    "NORAD_CAT_ID": 61629,
    "ELEMENT_SET_NO": 999,
    "REV_AT_EPOCH": 5934,
    "BSTAR": 9.0432e-05,
    "MEAN_MOTION_DOT": 2.228e-05,
    "MEAN_MOTION_DDOT": 0.0,
    "TLE_LINE1": "1 61629U 24191J   25314.73191768  .00002228  00000+0  90432-4 0  9993",
    "TLE_LINE2": "2 61629  43.0038 106.2900 0001539 279.7341  80.3337 15.27587994 59345",
    "COMMENT": "Grouped by shell and plane from TLE"
  }
]